QIANFAN-60              
1 62790U 25016F   25300.86007047  .00000068  00000+0  85597-4 0  9991
2 62790  88.9723 107.8231 0017367 113.9644 246.3328 13.50972399 41031
QIANFAN-61              
1 62791U 25016G   25300.81875380  .00000062  00000+0  77420-4 0  9990
2 62791  88.9790 107.9590 0016318 113.4038 246.8832 13.50975947 41040
QIANFAN-62              
1 62792U 25016H   25300.82303898  .00000132  00000+0  18596-3 0  9998
2 62792  88.9737 107.8518 0017690 113.8942 246.4065 13.50979752 41034
QIANFAN-63              
1 62793U 25016J   25300.84761625  .00000063  00000+0  78309-4 0  9999
2 62793  88.9743 107.7977 0017685 118.7144 241.5787 13.50972859 41074
QIANFAN-64              
1 62794U 25016K   25300.81467134  .00000076  00000+0  99091-4 0  9990
2 62794  88.9730 107.7814 0015697 112.0820 248.1999 13.50974598 41069
QIANFAN-65              
1 62795U 25016L   25300.81058944  .00000064  00000+0  79425-4 0  9992
2 62795  88.9726 107.8095 0015517 113.6784 246.5997 13.50973531 41048
QIANFAN-66              
1 62796U 25016M   25300.83945683  .00000071  00000+0  90801-4 0  9999
2 62796  88.9746 107.7677 0016676 109.7733 250.5218 13.50977627 41099
QIANFAN-67              
1 62797U 25016N   25300.84351918  .00000079  00000+0  10330-3 0  9999
2 62797  88.9736 107.7973 0016574 115.9562 244.3299 13.50970406 41069
QIANFAN-68              
1 62798U 25016P   25300.83529477  .00000075  00000+0  97446-4 0  9996
2 62798  88.9740 107.8417 0016662 114.4574 245.8318 13.50972706 41045
QIANFAN-69              
1 62799U 25016Q   25300.85181205  .00000056  00000+0  68500-4 0  9990
2 62799  88.9718 107.7192 0017391 115.4521 244.8431 13.50970044 41085
QIANFAN-70              
1 62800U 25016R   25300.79404294  .00000093  00000+0  12535-3 0  9999
2 62800  88.9739 107.8540 0017061 106.7558 253.5467 13.50972783 41039
QIANFAN-71              
1 62801U 25016S   25300.86408198  .00000068  00000+0  86059-4 0  9990
2 62801  88.9733 107.8291 0017258 118.5826 241.7064 13.50973766 41049
QIANFAN-72              
1 62802U 25016T   25300.80648523  .00000062  00000+0  77435-4 0  9995
2 62802  88.9724 107.8529 0020424 125.8700 234.4352 13.50973509 41027
QIANFAN-73              
1 63159U 25046A   25300.83332501  .00000043  00000+0  47530-4 0  9995
2 63159  88.9771 324.7786 0013060 254.3295 105.6415 13.50971963 41217
QIANFAN-74              
1 63160U 25046B   25300.81684664  .00000032  00000+0  31320-4 0  9993
2 63160  88.9771 324.6687 0002103  95.0806 265.0585 13.50973824 41275
QIANFAN-75              
1 63161U 25046C   25300.80435975  .00000124  00000+0  17355-3 0  9995
2 63161  88.9773 324.9029 0014151 258.0379 101.9186 13.50982881 41147
QIANFAN-76              
1 63162U 25046D   25300.80039823 -.00000129  00000+0 -21903-3 0  9999
2 63162  88.9770 324.8840 0011756 258.5136 101.4695 13.50971630 41150
QIANFAN-77              
1 63163U 25046E   25300.81456083  .00000152  00000+0  10110-3 0  9994
2 63163  88.9770 323.2667 0013433 217.0678 142.9572 13.96077301 42041
QIANFAN-78              
1 63164U 25046F   25300.84156022  .00000019  00000+0  10316-4 0  9999
2 63164  88.9771 324.7444 0013068 261.0486  98.9186 13.50974087 41230
QIANFAN-79              
1 63165U 25046G   25300.79618231  .00000034  00000+0  33511-4 0  9998
2 63165  88.9775 324.8549 0012772 259.1698 100.8016 13.50973598 41170
QIANFAN-80              
1 63166U 25046H   25300.81274568  .00000100  00000+0  13669-3 0  9998
2 63166  88.9772 324.5611 0011711 264.1486  95.8330 13.50975064 41338
QIANFAN-81              
1 63167U 25046J   25300.79179095  .00000112  00000+0  15434-3 0  9990
2 63167  88.9772 324.6315 0012833 250.8233 109.1529 13.50990174 41281
QIANFAN-82              
1 63168U 25046K   25300.82510971  .00000084  00000+0  11224-3 0  9998
2 63168  88.9772 324.6718 0010898 259.5689 100.4234 13.50971985 41274
QIANFAN-83              
1 63169U 25046L   25300.85528440  .00000053  00000+0  52300-4 0  9999
2 63169  88.9773 324.5351 0012273 245.4340 114.5538 13.61966249 41356
QIANFAN-84              
1 63170U 25046M   25300.85330588 -.00000040  00000+0 -81041-4 0  9997
2 63170  88.9769 324.8016 0013949 255.8910 104.0691 13.50987496 41206
QIANFAN-85              
1 63171U 25046N   25300.84977515  .00000113  00000+0  15677-3 0  9994
2 63171  88.9771 324.6740 0011252 258.2704 101.7184 13.50975458 41278
QIANFAN-86              
1 63172U 25046P   25300.78398353  .00000088  00000+0  11817-3 0  9998
2 63172  88.9774 324.5418 0009100 263.2807  96.7309 13.50972947 41342
QIANFAN-87              
1 63173U 25046Q   25300.82922661  .00000045  00000+0  50674-4 0  9997
2 63173  88.9770 324.6506 0009793 257.2862 102.7195 13.50969460 41280
QIANFAN-88              
1 63174U 25046R   25300.84570559  .00000086  00000+0  11450-3 0  9998
2 63174  88.9772 324.6023 0010147 266.8361  93.1629 13.50971141 41310
QIANFAN-89              
1 63175U 25046S   25300.80849653  .00000106  00000+0  14628-3 0  9992
2 63175  88.9773 324.7952 0014555 256.5424 103.4105 13.50973352 41205
QIANFAN-90              
1 63176U 25046T   25300.83722102  .00000016  00000+0  69069-5 0  9996
2 63176  88.9773 324.7646 0011520 253.7899 106.1985 13.50973934 41224
